{
  "type": "Feature",
  "properties": {},
  "geometry": {
    "type": "Polygon",
    "coordinates": [
      [
        [
          -78.79958,
          -0.77427
        ],
        [
          -78.80843,
          -0.77333
        ],
        [
          -78.81461,
          -0.77418
        ],
        [
          -78.81727,
          -0.77269
        ],
        [
          -78.82101,
          -0.77207
        ],
        [
          -78.82291,
          -0.76837
        ],
        [
          -78.82676,
          -0.76646
        ],
        [
          -78.83683,
          -0.75475
        ],
        [
          -78.83361,
          -0.74192
        ],
        [
          -78.84003,
          -0.73249
        ],
        [
          -78.83508,
          -0.71814
        ],
        [
          -78.83417,
          -0.71182
        ],
        [
          -78.83669,
          -0.70846
        ],
        [
          -78.83472,
          -0.70155
        ],
        [
          -78.83211,
          -0.69702
        ],
        [
          -78.82567,
          -0.69732
        ],
        [
          -78.82411,
          -0.69033
        ],
        [
          -78.82539,
          -0.68286
        ],
        [
          -78.82018,
          -0.67244
        ],
        [
          -78.81699,
          -0.67458
        ],
        [
          -78.80976,
          -0.67248
        ],
        [
          -78.80796,
          -0.67092
        ],
        [
          -78.80572,
          -0.6702
        ],
        [
          -78.80389,
          -0.66804
        ],
        [
          -78.79738,
          -0.66562
        ],
        [
          -78.79367,
          -0.66244
        ],
        [
          -78.79145,
          -0.6626
        ],
        [
          -78.78835,
          -0.65751
        ],
        [
          -78.78757,
          -0.65359
        ],
        [
          -78.78334,
          -0.64991
        ],
        [
          -78.78031,
          -0.64548
        ],
        [
          -78.77833,
          -0.6416
        ],
        [
          -78.7771,
          -0.636
        ],
        [
          -78.7708,
          -0.62968
        ],
        [
          -78.75945,
          -0.63349
        ],
        [
          -78.75018,
          -0.63806
        ],
        [
          -78.73834,
          -0.63702
        ],
        [
          -78.7212,
          -0.64643
        ],
        [
          -78.71755,
          -0.65767
        ],
        [
          -78.70271,
          -0.65286
        ],
        [
          -78.68489,
          -0.65399
        ],
        [
          -78.67879,
          -0.65129
        ],
        [
          -78.66911,
          -0.64872
        ],
        [
          -78.66313,
          -0.64392
        ],
        [
          -78.65808,
          -0.63529
        ],
        [
          -78.65362,
          -0.63286
        ],
        [
          -78.64662,
          -0.63191
        ],
        [
          -78.64335,
          -0.62933
        ],
        [
          -78.64313,
          -0.62468
        ],
        [
          -78.64502,
          -0.62022
        ],
        [
          -78.64283,
          -0.6152
        ],
        [
          -78.61965,
          -0.59979
        ],
        [
          -78.61558,
          -0.5926
        ],
        [
          -78.611,
          -0.5936
        ],
        [
          -78.6011,
          -0.60077
        ],
        [
          -78.59455,
          -0.60169
        ],
        [
          -78.58664,
          -0.60463
        ],
        [
          -78.58157,
          -0.60888
        ],
        [
          -78.57922,
          -0.6064
        ],
        [
          -78.57524,
          -0.60382
        ],
        [
          -78.55956,
          -0.60006
        ],
        [
          -78.54488,
          -0.59557
        ],
        [
          -78.53817,
          -0.59733
        ],
        [
          -78.5206,
          -0.59738
        ],
        [
          -78.50952,
          -0.6037
        ],
        [
          -78.50367,
          -0.61266
        ],
        [
          -78.50161,
          -0.61711
        ],
        [
          -78.49758,
          -0.62207
        ],
        [
          -78.49561,
          -0.62805
        ],
        [
          -78.49858,
          -0.63375
        ],
        [
          -78.48695,
          -0.64353
        ],
        [
          -78.48426,
          -0.64733
        ],
        [
          -78.47963,
          -0.64974
        ],
        [
          -78.46288,
          -0.65327
        ],
        [
          -78.44307,
          -0.67035
        ],
        [
          -78.4328,
          -0.68322
        ],
        [
          -78.42446,
          -0.70458
        ],
        [
          -78.41904,
          -0.7147
        ],
        [
          -78.41042,
          -0.71884
        ],
        [
          -78.40021,
          -0.72657
        ],
        [
          -78.39633,
          -0.73437
        ],
        [
          -78.39165,
          -0.74004
        ],
        [
          -78.38949,
          -0.74681
        ],
        [
          -78.38999,
          -0.75447
        ],
        [
          -78.3938,
          -0.75856
        ],
        [
          -78.3962,
          -0.76518
        ],
        [
          -78.39493,
          -0.77064
        ],
        [
          -78.39144,
          -0.7749
        ],
        [
          -78.38675,
          -0.77581
        ],
        [
          -78.39273,
          -0.78364
        ],
        [
          -78.39162,
          -0.78996
        ],
        [
          -78.39175,
          -0.7942
        ],
        [
          -78.38694,
          -0.80043
        ],
        [
          -78.38495,
          -0.8088
        ],
        [
          -78.38228,
          -0.81363
        ],
        [
          -78.38859,
          -0.81398
        ],
        [
          -78.38749,
          -0.82256
        ],
        [
          -78.38113,
          -0.83386
        ],
        [
          -78.39419,
          -0.8362
        ],
        [
          -78.39517,
          -0.84154
        ],
        [
          -78.38255,
          -0.8544
        ],
        [
          -78.38451,
          -0.86049
        ],
        [
          -78.42727,
          -0.88101
        ],
        [
          -78.41204,
          -0.91715
        ],
        [
          -78.41364,
          -0.92045
        ],
        [
          -78.41029,
          -0.92196
        ],
        [
          -78.41252,
          -0.92565
        ],
        [
          -78.40912,
          -0.9364
        ],
        [
          -78.40684,
          -0.94825
        ],
        [
          -78.40774,
          -0.9585
        ],
        [
          -78.46985,
          -0.95853
        ],
        [
          -78.47762,
          -0.96681
        ],
        [
          -78.47617,
          -0.96692
        ],
        [
          -78.4904,
          -0.97149
        ],
        [
          -78.50292,
          -0.97662
        ],
        [
          -78.52359,
          -0.98247
        ],
        [
          -78.52606,
          -0.98688
        ],
        [
          -78.53462,
          -0.98615
        ],
        [
          -78.53838,
          -0.98633
        ],
        [
          -78.54288,
          -0.98756
        ],
        [
          -78.55211,
          -0.99384
        ],
        [
          -78.55519,
          -0.99766
        ],
        [
          -78.56005,
          -0.99647
        ],
        [
          -78.56348,
          -0.99711
        ],
        [
          -78.56527,
          -1.00325
        ],
        [
          -78.57002,
          -1.00616
        ],
        [
          -78.57368,
          -1.01142
        ],
        [
          -78.57595,
          -1.0112
        ],
        [
          -78.57949,
          -1.0094
        ],
        [
          -78.58501,
          -1.01072
        ],
        [
          -78.58974,
          -1.00538
        ],
        [
          -78.60113,
          -1.00743
        ],
        [
          -78.60457,
          -1.00703
        ],
        [
          -78.60772,
          -1.00799
        ],
        [
          -78.61466,
          -1.00487
        ],
        [
          -78.61415,
          -1.00284
        ],
        [
          -78.61911,
          -0.99956
        ],
        [
          -78.62091,
          -0.99585
        ],
        [
          -78.62866,
          -0.98797
        ],
        [
          -78.63097,
          -0.9883
        ],
        [
          -78.64656,
          -0.97752
        ],
        [
          -78.64986,
          -0.97769
        ],
        [
          -78.65324,
          -0.9801
        ],
        [
          -78.65729,
          -0.98018
        ],
        [
          -78.65595,
          -0.97564
        ],
        [
          -78.65789,
          -0.97388
        ],
        [
          -78.66165,
          -0.96599
        ],
        [
          -78.66111,
          -0.95736
        ],
        [
          -78.66229,
          -0.95212
        ],
        [
          -78.66633,
          -0.94811
        ],
        [
          -78.67081,
          -0.93443
        ],
        [
          -78.67988,
          -0.93402
        ],
        [
          -78.6811,
          -0.93258
        ],
        [
          -78.68283,
          -0.92747
        ],
        [
          -78.68306,
          -0.92214
        ],
        [
          -78.67963,
          -0.92182
        ],
        [
          -78.68013,
          -0.90827
        ],
        [
          -78.67846,
          -0.90309
        ],
        [
          -78.68149,
          -0.8985
        ],
        [
          -78.68507,
          -0.89832
        ],
        [
          -78.69556,
          -0.89084
        ],
        [
          -78.70147,
          -0.88792
        ],
        [
          -78.70578,
          -0.88998
        ],
        [
          -78.71171,
          -0.89174
        ],
        [
          -78.72092,
          -0.89225
        ],
        [
          -78.72752,
          -0.89455
        ],
        [
          -78.72859,
          -0.89664
        ],
        [
          -78.73715,
          -0.89882
        ],
        [
          -78.73978,
          -0.90237
        ],
        [
          -78.74403,
          -0.90202
        ],
        [
          -78.7484,
          -0.90708
        ],
        [
          -78.7564,
          -0.90696
        ],
        [
          -78.75783,
          -0.90599
        ],
        [
          -78.78062,
          -0.91877
        ],
        [
          -78.80076,
          -0.92334
        ],
        [
          -78.80093,
          -0.92281
        ],
        [
          -78.79048,
          -0.91837
        ],
        [
          -78.78863,
          -0.90703
        ],
        [
          -78.78895,
          -0.90028
        ],
        [
          -78.78463,
          -0.89474
        ],
        [
          -78.78219,
          -0.88793
        ],
        [
          -78.77979,
          -0.88378
        ],
        [
          -78.77947,
          -0.88173
        ],
        [
          -78.78006,
          -0.87874
        ],
        [
          -78.77938,
          -0.87625
        ],
        [
          -78.77564,
          -0.87174
        ],
        [
          -78.76753,
          -0.8711
        ],
        [
          -78.76046,
          -0.874
        ],
        [
          -78.75351,
          -0.88338
        ],
        [
          -78.74814,
          -0.88105
        ],
        [
          -78.74629,
          -0.87843
        ],
        [
          -78.74014,
          -0.87936
        ],
        [
          -78.74038,
          -0.87453
        ],
        [
          -78.73676,
          -0.8724
        ],
        [
          -78.73523,
          -0.86596
        ],
        [
          -78.72796,
          -0.8616
        ],
        [
          -78.72337,
          -0.85688
        ],
        [
          -78.71531,
          -0.85631
        ],
        [
          -78.7109,
          -0.86035
        ],
        [
          -78.70438,
          -0.86289
        ],
        [
          -78.69815,
          -0.85769
        ],
        [
          -78.69435,
          -0.85878
        ],
        [
          -78.68827,
          -0.85386
        ],
        [
          -78.68121,
          -0.85031
        ],
        [
          -78.66901,
          -0.85064
        ],
        [
          -78.66092,
          -0.85419
        ],
        [
          -78.65792,
          -0.85775
        ],
        [
          -78.65187,
          -0.85443
        ],
        [
          -78.64696,
          -0.85927
        ],
        [
          -78.64406,
          -0.84043
        ],
        [
          -78.64816,
          -0.83988
        ],
        [
          -78.65257,
          -0.83587
        ],
        [
          -78.65851,
          -0.83488
        ],
        [
          -78.65926,
          -0.83332
        ],
        [
          -78.66403,
          -0.82957
        ],
        [
          -78.6654,
          -0.82591
        ],
        [
          -78.66662,
          -0.8245
        ],
        [
          -78.66639,
          -0.81948
        ],
        [
          -78.66564,
          -0.81713
        ],
        [
          -78.66,
          -0.81053
        ],
        [
          -78.67253,
          -0.80687
        ],
        [
          -78.67577,
          -0.80058
        ],
        [
          -78.67674,
          -0.80022
        ],
        [
          -78.67791,
          -0.79798
        ],
        [
          -78.67888,
          -0.79371
        ],
        [
          -78.68262,
          -0.78742
        ],
        [
          -78.68345,
          -0.78742
        ],
        [
          -78.68645,
          -0.78597
        ],
        [
          -78.68823,
          -0.77954
        ],
        [
          -78.69162,
          -0.77455
        ],
        [
          -78.69247,
          -0.77483
        ],
        [
          -78.69358,
          -0.77329
        ],
        [
          -78.69376,
          -0.76846
        ],
        [
          -78.69208,
          -0.76639
        ],
        [
          -78.69407,
          -0.76352
        ],
        [
          -78.69401,
          -0.76206
        ],
        [
          -78.69737,
          -0.75553
        ],
        [
          -78.70309,
          -0.74948
        ],
        [
          -78.70646,
          -0.7472
        ],
        [
          -78.71352,
          -0.7444
        ],
        [
          -78.71641,
          -0.7449
        ],
        [
          -78.72325,
          -0.74451
        ],
        [
          -78.72402,
          -0.74606
        ],
        [
          -78.72819,
          -0.74874
        ],
        [
          -78.73099,
          -0.74842
        ],
        [
          -78.7487,
          -0.74966
        ],
        [
          -78.77195,
          -0.75217
        ],
        [
          -78.77579,
          -0.75806
        ],
        [
          -78.7781,
          -0.77406
        ],
        [
          -78.7854,
          -0.77422
        ],
        [
          -78.79236,
          -0.7698
        ],
        [
          -78.79949,
          -0.77799
        ],
        [
          -78.79958,
          -0.77427
        ]
      ]
    ]
  }
}
