{
  "type": "FeatureCollection",
  "features": [
    {
      "type": "Feature",
      "properties": {
        "code": 5310,
        "name": "Eloy Alfaro (San Felipe)",
        "urbana": true,
        "lx": -78.64263,
        "ly": -0.92639
      },
      "geometry": {
        "type": "Polygon",
        "coordinates": [
          [
            [
              -78.63645,
              -0.86997
            ],
            [
              -78.63252,
              -0.8724
            ],
            [
              -78.62503,
              -0.87478
            ],
            [
              -78.62696,
              -0.88013
            ],
            [
              -78.62673,
              -0.90553
            ],
            [
              -78.6272,
              -0.91588
            ],
            [
              -78.62675,
              -0.91759
            ],
            [
              -78.62582,
              -0.91776
            ],
            [
              -78.62507,
              -0.91956
            ],
            [
              -78.62491,
              -0.92404
            ],
            [
              -78.6198,
              -0.93385
            ],
            [
              -78.61676,
              -0.93762
            ],
            [
              -78.61475,
              -0.94385
            ],
            [
              -78.61471,
              -0.94969
            ],
            [
              -78.61573,
              -0.95204
            ],
            [
              -78.61824,
              -0.95456
            ],
            [
              -78.61962,
              -0.95858
            ],
            [
              -78.6195,
              -0.96526
            ],
            [
              -78.61861,
              -0.96616
            ],
            [
              -78.61852,
              -0.96808
            ],
            [
              -78.61921,
              -0.9686
            ],
            [
              -78.61861,
              -0.97431
            ],
            [
              -78.62156,
              -0.9747
            ],
            [
              -78.62376,
              -0.97714
            ],
            [
              -78.62548,
              -0.98752
            ],
            [
              -78.63097,
              -0.9883
            ],
            [
              -78.64656,
              -0.97752
            ],
            [
              -78.64986,
              -0.97769
            ],
            [
              -78.65324,
              -0.9801
            ],
            [
              -78.65729,
              -0.98018
            ],
            [
              -78.65595,
              -0.97564
            ],
            [
              -78.65789,
              -0.97388
            ],
            [
              -78.66165,
              -0.96599
            ],
            [
              -78.66111,
              -0.95736
            ],
            [
              -78.66229,
              -0.95212
            ],
            [
              -78.66633,
              -0.94811
            ],
            [
              -78.66971,
              -0.9378
            ],
            [
              -78.66643,
              -0.93397
            ],
            [
              -78.66357,
              -0.93261
            ],
            [
              -78.66119,
              -0.92851
            ],
            [
              -78.66238,
              -0.9205
            ],
            [
              -78.66205,
              -0.91725
            ],
            [
              -78.65818,
              -0.90702
            ],
            [
              -78.65696,
              -0.90108
            ],
            [
              -78.66006,
              -0.89345
            ],
            [
              -78.65805,
              -0.89005
            ],
            [
              -78.6547,
              -0.88801
            ],
            [
              -78.65295,
              -0.8886
            ],
            [
              -78.65045,
              -0.88746
            ],
            [
              -78.65235,
              -0.88038
            ],
            [
              -78.64883,
              -0.87729
            ],
            [
              -78.65208,
              -0.86986
            ],
            [
              -78.64823,
              -0.86678
            ],
            [
              -78.64267,
              -0.86434
            ],
            [
              -78.63645,
              -0.86997
            ]
          ]
        ]
      }
    },
    {
      "type": "Feature",
      "properties": {
        "code": 5465,
        "name": "Ignacio Flores (Parque Flores)",
        "urbana": true,
        "lx": -78.49896,
        "ly": -0.95944
      },
      "geometry": {
        "type": "Polygon",
        "coordinates": [
          [
            [
              -78.41029,
              -0.92196
            ],
            [
              -78.41252,
              -0.92565
            ],
            [
              -78.40912,
              -0.9364
            ],
            [
              -78.40684,
              -0.94825
            ],
            [
              -78.40774,
              -0.9585
            ],
            [
              -78.46985,
              -0.95853
            ],
            [
              -78.47846,
              -0.96771
            ],
            [
              -78.49768,
              -0.96631
            ],
            [
              -78.50622,
              -0.96685
            ],
            [
              -78.51386,
              -0.96586
            ],
            [
              -78.52445,
              -0.96129
            ],
            [
              -78.53583,
              -0.95436
            ],
            [
              -78.53824,
              -0.95152
            ],
            [
              -78.54199,
              -0.95273
            ],
            [
              -78.55118,
              -0.94366
            ],
            [
              -78.56076,
              -0.94219
            ],
            [
              -78.56772,
              -0.9435
            ],
            [
              -78.57902,
              -0.95026
            ],
            [
              -78.58696,
              -0.94909
            ],
            [
              -78.58918,
              -0.95088
            ],
            [
              -78.59245,
              -0.95502
            ],
            [
              -78.59521,
              -0.9615
            ],
            [
              -78.59541,
              -0.96474
            ],
            [
              -78.60034,
              -0.9745
            ],
            [
              -78.60108,
              -0.97919
            ],
            [
              -78.60304,
              -0.97984
            ],
            [
              -78.60379,
              -0.98184
            ],
            [
              -78.60387,
              -0.98529
            ],
            [
              -78.60279,
              -0.9875
            ],
            [
              -78.60328,
              -0.98915
            ],
            [
              -78.60229,
              -0.9943
            ],
            [
              -78.59697,
              -0.99998
            ],
            [
              -78.59829,
              -1.0068
            ],
            [
              -78.60113,
              -1.00743
            ],
            [
              -78.60457,
              -1.00703
            ],
            [
              -78.60772,
              -1.00799
            ],
            [
              -78.61466,
              -1.00487
            ],
            [
              -78.61415,
              -1.00284
            ],
            [
              -78.61911,
              -0.99956
            ],
            [
              -78.62091,
              -0.99585
            ],
            [
              -78.62684,
              -0.98982
            ],
            [
              -78.62604,
              -0.98449
            ],
            [
              -78.62652,
              -0.98035
            ],
            [
              -78.62429,
              -0.97528
            ],
            [
              -78.61975,
              -0.97325
            ],
            [
              -78.62015,
              -0.96778
            ],
            [
              -78.61924,
              -0.96695
            ],
            [
              -78.6202,
              -0.96662
            ],
            [
              -78.62047,
              -0.95797
            ],
            [
              -78.61951,
              -0.95466
            ],
            [
              -78.61662,
              -0.95154
            ],
            [
              -78.61562,
              -0.94889
            ],
            [
              -78.6158,
              -0.94308
            ],
            [
              -78.61747,
              -0.9381
            ],
            [
              -78.60335,
              -0.93215
            ],
            [
              -78.59476,
              -0.92423
            ],
            [
              -78.58691,
              -0.9253
            ],
            [
              -78.57987,
              -0.92894
            ],
            [
              -78.56507,
              -0.93315
            ],
            [
              -78.55437,
              -0.93769
            ],
            [
              -78.54984,
              -0.93555
            ],
            [
              -78.54704,
              -0.93268
            ],
            [
              -78.53936,
              -0.93277
            ],
            [
              -78.53348,
              -0.93183
            ],
            [
              -78.52177,
              -0.92745
            ],
            [
              -78.51691,
              -0.92428
            ],
            [
              -78.51338,
              -0.92048
            ],
            [
              -78.50682,
              -0.91563
            ],
            [
              -78.49686,
              -0.91811
            ],
            [
              -78.49525,
              -0.91767
            ],
            [
              -78.49002,
              -0.91834
            ],
            [
              -78.48864,
              -0.91907
            ],
            [
              -78.4825,
              -0.9165
            ],
            [
              -78.48184,
              -0.91499
            ],
            [
              -78.47992,
              -0.91384
            ],
            [
              -78.47449,
              -0.9134
            ],
            [
              -78.47085,
              -0.91436
            ],
            [
              -78.46387,
              -0.912
            ],
            [
              -78.46265,
              -0.91257
            ],
            [
              -78.4598,
              -0.90953
            ],
            [
              -78.45784,
              -0.91021
            ],
            [
              -78.45282,
              -0.91534
            ],
            [
              -78.44348,
              -0.91438
            ],
            [
              -78.43614,
              -0.91666
            ],
            [
              -78.43425,
              -0.91634
            ],
            [
              -78.43216,
              -0.91718
            ],
            [
              -78.42501,
              -0.91543
            ],
            [
              -78.42313,
              -0.91699
            ],
            [
              -78.42161,
              -0.91684
            ],
            [
              -78.41029,
              -0.92196
            ]
          ]
        ]
      }
    },
    {
      "type": "Feature",
      "properties": {
        "code": 5500,
        "name": "Juan Montalvo (San Sebastián)",
        "urbana": true,
        "lx": -78.5111,
        "ly": -0.90697
      },
      "geometry": {
        "type": "Polygon",
        "coordinates": [
          [
            [
              -78.61297,
              -0.93368
            ],
            [
              -78.6135,
              -0.93521
            ],
            [
              -78.61488,
              -0.9294
            ],
            [
              -78.61449,
              -0.9264
            ],
            [
              -78.61706,
              -0.92418
            ],
            [
              -78.61752,
              -0.91803
            ],
            [
              -78.61402,
              -0.91505
            ],
            [
              -78.60727,
              -0.91146
            ],
            [
              -78.60473,
              -0.90346
            ],
            [
              -78.60297,
              -0.90018
            ],
            [
              -78.59978,
              -0.89913
            ],
            [
              -78.59694,
              -0.90025
            ],
            [
              -78.59343,
              -0.8989
            ],
            [
              -78.58787,
              -0.89417
            ],
            [
              -78.57955,
              -0.89541
            ],
            [
              -78.57622,
              -0.89669
            ],
            [
              -78.57526,
              -0.89541
            ],
            [
              -78.57207,
              -0.89339
            ],
            [
              -78.56996,
              -0.89028
            ],
            [
              -78.56444,
              -0.89354
            ],
            [
              -78.55546,
              -0.89127
            ],
            [
              -78.54777,
              -0.89335
            ],
            [
              -78.54316,
              -0.89814
            ],
            [
              -78.5248,
              -0.89898
            ],
            [
              -78.51666,
              -0.90028
            ],
            [
              -78.50907,
              -0.90243
            ],
            [
              -78.5001,
              -0.901
            ],
            [
              -78.49566,
              -0.90098
            ],
            [
              -78.48074,
              -0.87678
            ],
            [
              -78.4629,
              -0.8744
            ],
            [
              -78.43767,
              -0.88124
            ],
            [
              -78.42897,
              -0.8795
            ],
            [
              -78.42587,
              -0.88434
            ],
            [
              -78.41204,
              -0.91715
            ],
            [
              -78.41385,
              -0.92089
            ],
            [
              -78.41716,
              -0.92016
            ],
            [
              -78.42166,
              -0.91784
            ],
            [
              -78.42328,
              -0.91803
            ],
            [
              -78.42509,
              -0.91652
            ],
            [
              -78.43214,
              -0.91821
            ],
            [
              -78.44343,
              -0.91553
            ],
            [
              -78.45291,
              -0.91636
            ],
            [
              -78.45599,
              -0.91411
            ],
            [
              -78.45826,
              -0.91122
            ],
            [
              -78.45935,
              -0.91084
            ],
            [
              -78.46226,
              -0.91375
            ],
            [
              -78.4638,
              -0.91308
            ],
            [
              -78.47064,
              -0.91536
            ],
            [
              -78.47438,
              -0.91443
            ],
            [
              -78.47935,
              -0.9148
            ],
            [
              -78.48104,
              -0.91563
            ],
            [
              -78.48162,
              -0.91705
            ],
            [
              -78.48336,
              -0.91831
            ],
            [
              -78.48845,
              -0.91993
            ],
            [
              -78.49999,
              -0.91857
            ],
            [
              -78.50631,
              -0.91669
            ],
            [
              -78.51248,
              -0.92099
            ],
            [
              -78.51531,
              -0.92455
            ],
            [
              -78.52088,
              -0.92827
            ],
            [
              -78.52646,
              -0.92978
            ],
            [
              -78.53307,
              -0.93272
            ],
            [
              -78.53895,
              -0.9338
            ],
            [
              -78.5459,
              -0.93381
            ],
            [
              -78.5538,
              -0.93866
            ],
            [
              -78.55893,
              -0.93753
            ],
            [
              -78.56451,
              -0.93435
            ],
            [
              -78.57981,
              -0.93021
            ],
            [
              -78.58681,
              -0.92635
            ],
            [
              -78.59406,
              -0.92504
            ],
            [
              -78.60267,
              -0.93296
            ],
            [
              -78.60616,
              -0.93415
            ],
            [
              -78.60802,
              -0.93552
            ],
            [
              -78.6119,
              -0.93641
            ],
            [
              -78.61187,
              -0.93454
            ],
            [
              -78.61297,
              -0.93368
            ]
          ]
        ]
      }
    },
    {
      "type": "Feature",
      "properties": {
        "code": 5555,
        "name": "La Matriz",
        "urbana": true,
        "lx": -78.61985,
        "ly": -0.92567
      },
      "geometry": {
        "type": "Polygon",
        "coordinates": [
          [
            [
              -78.62025,
              -0.91508
            ],
            [
              -78.61971,
              -0.92362
            ],
            [
              -78.61844,
              -0.92437
            ],
            [
              -78.61639,
              -0.92379
            ],
            [
              -78.61346,
              -0.92621
            ],
            [
              -78.61383,
              -0.92969
            ],
            [
              -78.61322,
              -0.93215
            ],
            [
              -78.61086,
              -0.93412
            ],
            [
              -78.61089,
              -0.93599
            ],
            [
              -78.61201,
              -0.93712
            ],
            [
              -78.61702,
              -0.93898
            ],
            [
              -78.62092,
              -0.93396
            ],
            [
              -78.62275,
              -0.92951
            ],
            [
              -78.62423,
              -0.92786
            ],
            [
              -78.62584,
              -0.9247
            ],
            [
              -78.62608,
              -0.92023
            ],
            [
              -78.62698,
              -0.91783
            ],
            [
              -78.62582,
              -0.91379
            ],
            [
              -78.62025,
              -0.91508
            ]
          ]
        ]
      }
    },
    {
      "type": "Feature",
      "properties": {
        "code": 5940,
        "name": "San Buenaventura",
        "urbana": true,
        "lx": -78.51752,
        "ly": -0.89786
      },
      "geometry": {
        "type": "Polygon",
        "coordinates": [
          [
            [
              -78.61607,
              -0.91706
            ],
            [
              -78.61605,
              -0.92335
            ],
            [
              -78.61663,
              -0.92449
            ],
            [
              -78.61993,
              -0.92607
            ],
            [
              -78.62101,
              -0.92226
            ],
            [
              -78.62131,
              -0.91491
            ],
            [
              -78.62509,
              -0.91488
            ],
            [
              -78.62593,
              -0.91797
            ],
            [
              -78.62784,
              -0.91829
            ],
            [
              -78.62796,
              -0.87988
            ],
            [
              -78.62583,
              -0.87474
            ],
            [
              -78.61835,
              -0.87447
            ],
            [
              -78.6021,
              -0.87674
            ],
            [
              -78.57418,
              -0.87711
            ],
            [
              -78.56835,
              -0.87376
            ],
            [
              -78.54238,
              -0.87501
            ],
            [
              -78.5322,
              -0.87164
            ],
            [
              -78.51925,
              -0.86985
            ],
            [
              -78.51381,
              -0.87131
            ],
            [
              -78.50466,
              -0.87101
            ],
            [
              -78.49825,
              -0.87181
            ],
            [
              -78.49136,
              -0.87511
            ],
            [
              -78.48483,
              -0.87684
            ],
            [
              -78.4839,
              -0.88769
            ],
            [
              -78.49554,
              -0.90199
            ],
            [
              -78.5124,
              -0.90297
            ],
            [
              -78.51697,
              -0.9012
            ],
            [
              -78.52629,
              -0.89961
            ],
            [
              -78.54011,
              -0.89906
            ],
            [
              -78.54531,
              -0.89739
            ],
            [
              -78.54921,
              -0.89405
            ],
            [
              -78.55777,
              -0.89215
            ],
            [
              -78.56524,
              -0.89417
            ],
            [
              -78.57032,
              -0.89172
            ],
            [
              -78.57161,
              -0.89441
            ],
            [
              -78.57602,
              -0.89768
            ],
            [
              -78.58836,
              -0.8957
            ],
            [
              -78.59379,
              -0.90097
            ],
            [
              -78.59767,
              -0.90118
            ],
            [
              -78.60001,
              -0.90023
            ],
            [
              -78.60314,
              -0.90102
            ],
            [
              -78.60652,
              -0.91281
            ],
            [
              -78.61607,
              -0.91706
            ]
          ]
        ]
      }
    },
    {
      "type": "Feature",
      "properties": {
        "code": 35,
        "name": "Aláquez",
        "urbana": false,
        "lx": -78.49794,
        "ly": -0.84377
      },
      "geometry": {
        "type": "Polygon",
        "coordinates": [
          [
            [
              -78.38749,
              -0.82256
            ],
            [
              -78.38113,
              -0.83386
            ],
            [
              -78.39419,
              -0.8362
            ],
            [
              -78.39517,
              -0.84154
            ],
            [
              -78.38255,
              -0.8544
            ],
            [
              -78.38451,
              -0.86049
            ],
            [
              -78.42709,
              -0.88092
            ],
            [
              -78.43505,
              -0.88167
            ],
            [
              -78.44483,
              -0.8783
            ],
            [
              -78.46294,
              -0.87542
            ],
            [
              -78.48041,
              -0.87774
            ],
            [
              -78.48584,
              -0.87769
            ],
            [
              -78.49248,
              -0.87587
            ],
            [
              -78.49946,
              -0.872
            ],
            [
              -78.50673,
              -0.87296
            ],
            [
              -78.52236,
              -0.87048
            ],
            [
              -78.5331,
              -0.87413
            ],
            [
              -78.54537,
              -0.87613
            ],
            [
              -78.55903,
              -0.87453
            ],
            [
              -78.56971,
              -0.8761
            ],
            [
              -78.57693,
              -0.87802
            ],
            [
              -78.58688,
              -0.87811
            ],
            [
              -78.59438,
              -0.87654
            ],
            [
              -78.60278,
              -0.87775
            ],
            [
              -78.62618,
              -0.87554
            ],
            [
              -78.62592,
              -0.86056
            ],
            [
              -78.6236,
              -0.85775
            ],
            [
              -78.61885,
              -0.84727
            ],
            [
              -78.61227,
              -0.83916
            ],
            [
              -78.61387,
              -0.85126
            ],
            [
              -78.609,
              -0.85458
            ],
            [
              -78.60341,
              -0.84561
            ],
            [
              -78.59999,
              -0.83633
            ],
            [
              -78.59507,
              -0.8348
            ],
            [
              -78.58728,
              -0.83106
            ],
            [
              -78.58259,
              -0.8275
            ],
            [
              -78.57298,
              -0.82615
            ],
            [
              -78.56943,
              -0.82434
            ],
            [
              -78.56447,
              -0.82586
            ],
            [
              -78.5642,
              -0.82725
            ],
            [
              -78.56172,
              -0.82828
            ],
            [
              -78.55208,
              -0.82868
            ],
            [
              -78.54969,
              -0.82846
            ],
            [
              -78.54796,
              -0.82703
            ],
            [
              -78.54762,
              -0.82564
            ],
            [
              -78.54509,
              -0.82452
            ],
            [
              -78.54238,
              -0.82528
            ],
            [
              -78.54161,
              -0.82472
            ],
            [
              -78.53958,
              -0.82493
            ],
            [
              -78.5389,
              -0.82434
            ],
            [
              -78.53621,
              -0.82413
            ],
            [
              -78.53427,
              -0.82444
            ],
            [
              -78.53235,
              -0.82377
            ],
            [
              -78.52956,
              -0.82465
            ],
            [
              -78.52635,
              -0.8226
            ],
            [
              -78.52575,
              -0.82363
            ],
            [
              -78.51829,
              -0.82348
            ],
            [
              -78.51476,
              -0.82456
            ],
            [
              -78.51234,
              -0.82448
            ],
            [
              -78.50565,
              -0.82151
            ],
            [
              -78.50092,
              -0.821
            ],
            [
              -78.49707,
              -0.81874
            ],
            [
              -78.48727,
              -0.81576
            ],
            [
              -78.4796,
              -0.81678
            ],
            [
              -78.47614,
              -0.81146
            ],
            [
              -78.47487,
              -0.80782
            ],
            [
              -78.47045,
              -0.80607
            ],
            [
              -78.46882,
              -0.80661
            ],
            [
              -78.46726,
              -0.80597
            ],
            [
              -78.46462,
              -0.80598
            ],
            [
              -78.45943,
              -0.8089
            ],
            [
              -78.44282,
              -0.81039
            ],
            [
              -78.43899,
              -0.81326
            ],
            [
              -78.4234,
              -0.81687
            ],
            [
              -78.41966,
              -0.8171
            ],
            [
              -78.41161,
              -0.81606
            ],
            [
              -78.38881,
              -0.81222
            ],
            [
              -78.38749,
              -0.82256
            ]
          ]
        ]
      }
    },
    {
      "type": "Feature",
      "properties": {
        "code": 315,
        "name": "Belisario Quevedo",
        "urbana": false,
        "lx": -78.55467,
        "ly": -0.97754
      },
      "geometry": {
        "type": "Polygon",
        "coordinates": [
          [
            [
              -78.59619,
              -0.96125
            ],
            [
              -78.59331,
              -0.9545
            ],
            [
              -78.5899,
              -0.95018
            ],
            [
              -78.58724,
              -0.94803
            ],
            [
              -78.57922,
              -0.94922
            ],
            [
              -78.56808,
              -0.94256
            ],
            [
              -78.56078,
              -0.94117
            ],
            [
              -78.5507,
              -0.94272
            ],
            [
              -78.54171,
              -0.95159
            ],
            [
              -78.53792,
              -0.95036
            ],
            [
              -78.53517,
              -0.95358
            ],
            [
              -78.52399,
              -0.96039
            ],
            [
              -78.5136,
              -0.96488
            ],
            [
              -78.50618,
              -0.96585
            ],
            [
              -78.49768,
              -0.96531
            ],
            [
              -78.47617,
              -0.96692
            ],
            [
              -78.4904,
              -0.97149
            ],
            [
              -78.50292,
              -0.97662
            ],
            [
              -78.52359,
              -0.98247
            ],
            [
              -78.52606,
              -0.98688
            ],
            [
              -78.53462,
              -0.98615
            ],
            [
              -78.53838,
              -0.98633
            ],
            [
              -78.54288,
              -0.98756
            ],
            [
              -78.55211,
              -0.99384
            ],
            [
              -78.55519,
              -0.99766
            ],
            [
              -78.56005,
              -0.99647
            ],
            [
              -78.56348,
              -0.99711
            ],
            [
              -78.56527,
              -1.00325
            ],
            [
              -78.57002,
              -1.00616
            ],
            [
              -78.57368,
              -1.01142
            ],
            [
              -78.57595,
              -1.0112
            ],
            [
              -78.57949,
              -1.0094
            ],
            [
              -78.58501,
              -1.01072
            ],
            [
              -78.58974,
              -1.00538
            ],
            [
              -78.59928,
              -1.00695
            ],
            [
              -78.59838,
              -1.00074
            ],
            [
              -78.60286,
              -0.99535
            ],
            [
              -78.60468,
              -0.98906
            ],
            [
              -78.60349,
              -0.98803
            ],
            [
              -78.60474,
              -0.98591
            ],
            [
              -78.60479,
              -0.98191
            ],
            [
              -78.60395,
              -0.97928
            ],
            [
              -78.60201,
              -0.97857
            ],
            [
              -78.60132,
              -0.97427
            ],
            [
              -78.59673,
              -0.96535
            ],
            [
              -78.59619,
              -0.96125
            ]
          ]
        ]
      }
    },
    {
      "type": "Feature",
      "properties": {
        "code": 1485,
        "name": "Guaytacama",
        "urbana": false,
        "lx": -78.64011,
        "ly": -0.83101
      },
      "geometry": {
        "type": "Polygon",
        "coordinates": [
          [
            [
              -78.66992,
              -0.78723
            ],
            [
              -78.66482,
              -0.79466
            ],
            [
              -78.66161,
              -0.80152
            ],
            [
              -78.65823,
              -0.80526
            ],
            [
              -78.65697,
              -0.80436
            ],
            [
              -78.65221,
              -0.7951
            ],
            [
              -78.64851,
              -0.79829
            ],
            [
              -78.64574,
              -0.79859
            ],
            [
              -78.64349,
              -0.80012
            ],
            [
              -78.63878,
              -0.79886
            ],
            [
              -78.62905,
              -0.79996
            ],
            [
              -78.63143,
              -0.81063
            ],
            [
              -78.62948,
              -0.81098
            ],
            [
              -78.62611,
              -0.81014
            ],
            [
              -78.62337,
              -0.81158
            ],
            [
              -78.62357,
              -0.81707
            ],
            [
              -78.61738,
              -0.82856
            ],
            [
              -78.61899,
              -0.83282
            ],
            [
              -78.61788,
              -0.84067
            ],
            [
              -78.61801,
              -0.84799
            ],
            [
              -78.62325,
              -0.85891
            ],
            [
              -78.62553,
              -0.86192
            ],
            [
              -78.62482,
              -0.87138
            ],
            [
              -78.62593,
              -0.87511
            ],
            [
              -78.63323,
              -0.87329
            ],
            [
              -78.63726,
              -0.86813
            ],
            [
              -78.638,
              -0.86429
            ],
            [
              -78.64133,
              -0.85719
            ],
            [
              -78.64247,
              -0.85308
            ],
            [
              -78.6456,
              -0.85044
            ],
            [
              -78.64464,
              -0.8442
            ],
            [
              -78.64322,
              -0.84054
            ],
            [
              -78.64816,
              -0.83988
            ],
            [
              -78.65257,
              -0.83587
            ],
            [
              -78.65851,
              -0.83488
            ],
            [
              -78.65926,
              -0.83332
            ],
            [
              -78.66403,
              -0.82957
            ],
            [
              -78.6654,
              -0.82591
            ],
            [
              -78.66662,
              -0.8245
            ],
            [
              -78.66639,
              -0.81948
            ],
            [
              -78.66564,
              -0.81713
            ],
            [
              -78.66099,
              -0.81169
            ],
            [
              -78.66106,
              -0.81146
            ],
            [
              -78.66315,
              -0.80961
            ],
            [
              -78.67253,
              -0.80687
            ],
            [
              -78.67577,
              -0.80058
            ],
            [
              -78.67674,
              -0.80022
            ],
            [
              -78.67791,
              -0.79798
            ],
            [
              -78.67888,
              -0.79371
            ],
            [
              -78.68237,
              -0.78784
            ],
            [
              -78.68591,
              -0.78622
            ],
            [
              -78.66992,
              -0.78723
            ]
          ]
        ]
      }
    },
    {
      "type": "Feature",
      "properties": {
        "code": 1905,
        "name": "Joseguango Bajo",
        "urbana": false,
        "lx": -78.60503,
        "ly": -0.82181
      },
      "geometry": {
        "type": "Polygon",
        "coordinates": [
          [
            [
              -78.58511,
              -0.83097
            ],
            [
              -78.59031,
              -0.834
            ],
            [
              -78.5969,
              -0.83608
            ],
            [
              -78.61038,
              -0.85546
            ],
            [
              -78.61427,
              -0.8532
            ],
            [
              -78.61549,
              -0.84796
            ],
            [
              -78.61887,
              -0.84084
            ],
            [
              -78.61993,
              -0.8325
            ],
            [
              -78.61847,
              -0.82849
            ],
            [
              -78.62463,
              -0.81716
            ],
            [
              -78.62435,
              -0.81154
            ],
            [
              -78.62015,
              -0.80754
            ],
            [
              -78.61814,
              -0.80696
            ],
            [
              -78.61271,
              -0.80218
            ],
            [
              -78.59786,
              -0.80331
            ],
            [
              -78.5954,
              -0.79858
            ],
            [
              -78.59627,
              -0.79646
            ],
            [
              -78.59591,
              -0.7937
            ],
            [
              -78.59356,
              -0.79199
            ],
            [
              -78.59101,
              -0.79269
            ],
            [
              -78.57818,
              -0.79082
            ],
            [
              -78.5795,
              -0.79802
            ],
            [
              -78.58102,
              -0.7994
            ],
            [
              -78.58192,
              -0.80461
            ],
            [
              -78.5833,
              -0.80779
            ],
            [
              -78.58606,
              -0.80891
            ],
            [
              -78.58959,
              -0.81245
            ],
            [
              -78.5881,
              -0.81573
            ],
            [
              -78.58892,
              -0.81798
            ],
            [
              -78.58715,
              -0.82551
            ],
            [
              -78.58511,
              -0.83097
            ]
          ]
        ]
      }
    },
    {
      "type": "Feature",
      "properties": {
        "code": 2480,
        "name": "Mulaló",
        "urbana": false,
        "lx": -78.50754,
        "ly": -0.71176
      },
      "geometry": {
        "type": "Polygon",
        "coordinates": [
          [
            [
              -78.41904,
              -0.7147
            ],
            [
              -78.41042,
              -0.71884
            ],
            [
              -78.40021,
              -0.72657
            ],
            [
              -78.39633,
              -0.73437
            ],
            [
              -78.39165,
              -0.74004
            ],
            [
              -78.38949,
              -0.74681
            ],
            [
              -78.38999,
              -0.75447
            ],
            [
              -78.3938,
              -0.75856
            ],
            [
              -78.3962,
              -0.76518
            ],
            [
              -78.39493,
              -0.77064
            ],
            [
              -78.39144,
              -0.7749
            ],
            [
              -78.38675,
              -0.77581
            ],
            [
              -78.39273,
              -0.78364
            ],
            [
              -78.39162,
              -0.78996
            ],
            [
              -78.39175,
              -0.7942
            ],
            [
              -78.38694,
              -0.80043
            ],
            [
              -78.38495,
              -0.8088
            ],
            [
              -78.38228,
              -0.81363
            ],
            [
              -78.40356,
              -0.81481
            ],
            [
              -78.42156,
              -0.81839
            ],
            [
              -78.43575,
              -0.81453
            ],
            [
              -78.44069,
              -0.81386
            ],
            [
              -78.44646,
              -0.81091
            ],
            [
              -78.44924,
              -0.81153
            ],
            [
              -78.45876,
              -0.81054
            ],
            [
              -78.46322,
              -0.80796
            ],
            [
              -78.46832,
              -0.80787
            ],
            [
              -78.46978,
              -0.80687
            ],
            [
              -78.47205,
              -0.80783
            ],
            [
              -78.47429,
              -0.80985
            ],
            [
              -78.47834,
              -0.81721
            ],
            [
              -78.4854,
              -0.81652
            ],
            [
              -78.49951,
              -0.81995
            ],
            [
              -78.50235,
              -0.8227
            ],
            [
              -78.50498,
              -0.82229
            ],
            [
              -78.51132,
              -0.82544
            ],
            [
              -78.51565,
              -0.82547
            ],
            [
              -78.51806,
              -0.82459
            ],
            [
              -78.52041,
              -0.82504
            ],
            [
              -78.52306,
              -0.82431
            ],
            [
              -78.52571,
              -0.82474
            ],
            [
              -78.52687,
              -0.82352
            ],
            [
              -78.52851,
              -0.82461
            ],
            [
              -78.52871,
              -0.82572
            ],
            [
              -78.53267,
              -0.82484
            ],
            [
              -78.53359,
              -0.8255
            ],
            [
              -78.53816,
              -0.82534
            ],
            [
              -78.54173,
              -0.82616
            ],
            [
              -78.54644,
              -0.8259
            ],
            [
              -78.54748,
              -0.82829
            ],
            [
              -78.55029,
              -0.82954
            ],
            [
              -78.55899,
              -0.82963
            ],
            [
              -78.56297,
              -0.82918
            ],
            [
              -78.56418,
              -0.8266
            ],
            [
              -78.56661,
              -0.82707
            ],
            [
              -78.56854,
              -0.82525
            ],
            [
              -78.57226,
              -0.82682
            ],
            [
              -78.58122,
              -0.82829
            ],
            [
              -78.58405,
              -0.83001
            ],
            [
              -78.58808,
              -0.82591
            ],
            [
              -78.58996,
              -0.81792
            ],
            [
              -78.58918,
              -0.81577
            ],
            [
              -78.59079,
              -0.81223
            ],
            [
              -78.58662,
              -0.80807
            ],
            [
              -78.58406,
              -0.80701
            ],
            [
              -78.58288,
              -0.80433
            ],
            [
              -78.58194,
              -0.7989
            ],
            [
              -78.58042,
              -0.7975
            ],
            [
              -78.57942,
              -0.79202
            ],
            [
              -78.59107,
              -0.79371
            ],
            [
              -78.59336,
              -0.79309
            ],
            [
              -78.59497,
              -0.79426
            ],
            [
              -78.59525,
              -0.79632
            ],
            [
              -78.5943,
              -0.79864
            ],
            [
              -78.59728,
              -0.80435
            ],
            [
              -78.61237,
              -0.8032
            ],
            [
              -78.61764,
              -0.80786
            ],
            [
              -78.61965,
              -0.80844
            ],
            [
              -78.62421,
              -0.81225
            ],
            [
              -78.62489,
              -0.80867
            ],
            [
              -78.62317,
              -0.80315
            ],
            [
              -78.61409,
              -0.78661
            ],
            [
              -78.61176,
              -0.78079
            ],
            [
              -78.61218,
              -0.77996
            ],
            [
              -78.60988,
              -0.77136
            ],
            [
              -78.60912,
              -0.76363
            ],
            [
              -78.60854,
              -0.76291
            ],
            [
              -78.60914,
              -0.75905
            ],
            [
              -78.60864,
              -0.75406
            ],
            [
              -78.61068,
              -0.75082
            ],
            [
              -78.60668,
              -0.74684
            ],
            [
              -78.60926,
              -0.74366
            ],
            [
              -78.61004,
              -0.74081
            ],
            [
              -78.60889,
              -0.7382
            ],
            [
              -78.60624,
              -0.73683
            ],
            [
              -78.60133,
              -0.73145
            ],
            [
              -78.60059,
              -0.72393
            ],
            [
              -78.59974,
              -0.72124
            ],
            [
              -78.59707,
              -0.7157
            ],
            [
              -78.59476,
              -0.71341
            ],
            [
              -78.59395,
              -0.70958
            ],
            [
              -78.58423,
              -0.70188
            ],
            [
              -78.58583,
              -0.69016
            ],
            [
              -78.58555,
              -0.68001
            ],
            [
              -78.58322,
              -0.6729
            ],
            [
              -78.5877,
              -0.66924
            ],
            [
              -78.58792,
              -0.66621
            ],
            [
              -78.58622,
              -0.66351
            ],
            [
              -78.58995,
              -0.65858
            ],
            [
              -78.59316,
              -0.64843
            ],
            [
              -78.59688,
              -0.62853
            ],
            [
              -78.59717,
              -0.61805
            ],
            [
              -78.59897,
              -0.60812
            ],
            [
              -78.60221,
              -0.60061
            ],
            [
              -78.59455,
              -0.60169
            ],
            [
              -78.58664,
              -0.60463
            ],
            [
              -78.58157,
              -0.60888
            ],
            [
              -78.57922,
              -0.6064
            ],
            [
              -78.57524,
              -0.60382
            ],
            [
              -78.55956,
              -0.60006
            ],
            [
              -78.54488,
              -0.59557
            ],
            [
              -78.53817,
              -0.59733
            ],
            [
              -78.5206,
              -0.59738
            ],
            [
              -78.50952,
              -0.6037
            ],
            [
              -78.50367,
              -0.61266
            ],
            [
              -78.50161,
              -0.61711
            ],
            [
              -78.49758,
              -0.62207
            ],
            [
              -78.49561,
              -0.62805
            ],
            [
              -78.49858,
              -0.63375
            ],
            [
              -78.48695,
              -0.64353
            ],
            [
              -78.48426,
              -0.64733
            ],
            [
              -78.47963,
              -0.64974
            ],
            [
              -78.46288,
              -0.65327
            ],
            [
              -78.44307,
              -0.67035
            ],
            [
              -78.4328,
              -0.68322
            ],
            [
              -78.42446,
              -0.70458
            ],
            [
              -78.41904,
              -0.7147
            ]
          ]
        ]
      }
    },
    {
      "type": "Feature",
      "properties": {
        "code": 2620,
        "name": "11 de Noviembre",
        "urbana": false,
        "lx": -78.66927,
        "ly": -0.9137
      },
      "geometry": {
        "type": "Polygon",
        "coordinates": [
          [
            [
              -78.65649,
              -0.89928
            ],
            [
              -78.65618,
              -0.90447
            ],
            [
              -78.65835,
              -0.91036
            ],
            [
              -78.65887,
              -0.91734
            ],
            [
              -78.66132,
              -0.92015
            ],
            [
              -78.66025,
              -0.92798
            ],
            [
              -78.66092,
              -0.93123
            ],
            [
              -78.6644,
              -0.93472
            ],
            [
              -78.67988,
              -0.93402
            ],
            [
              -78.6811,
              -0.93258
            ],
            [
              -78.68283,
              -0.92747
            ],
            [
              -78.68306,
              -0.92214
            ],
            [
              -78.67963,
              -0.92182
            ],
            [
              -78.68013,
              -0.90827
            ],
            [
              -78.67772,
              -0.90078
            ],
            [
              -78.67401,
              -0.89774
            ],
            [
              -78.66153,
              -0.89286
            ],
            [
              -78.65649,
              -0.89928
            ]
          ]
        ]
      }
    },
    {
      "type": "Feature",
      "properties": {
        "code": 2920,
        "name": "Poaló",
        "urbana": false,
        "lx": -78.71585,
        "ly": -0.88664
      },
      "geometry": {
        "type": "Polygon",
        "coordinates": [
          [
            [
              -78.65187,
              -0.85443
            ],
            [
              -78.6412,
              -0.86494
            ],
            [
              -78.64684,
              -0.86734
            ],
            [
              -78.65052,
              -0.87005
            ],
            [
              -78.64776,
              -0.87732
            ],
            [
              -78.65041,
              -0.88035
            ],
            [
              -78.65011,
              -0.88598
            ],
            [
              -78.65106,
              -0.88916
            ],
            [
              -78.6527,
              -0.88974
            ],
            [
              -78.65452,
              -0.88917
            ],
            [
              -78.65689,
              -0.8905
            ],
            [
              -78.65906,
              -0.89303
            ],
            [
              -78.67054,
              -0.89747
            ],
            [
              -78.67498,
              -0.89961
            ],
            [
              -78.67874,
              -0.90267
            ],
            [
              -78.68149,
              -0.8985
            ],
            [
              -78.68507,
              -0.89832
            ],
            [
              -78.69556,
              -0.89084
            ],
            [
              -78.70147,
              -0.88792
            ],
            [
              -78.70578,
              -0.88998
            ],
            [
              -78.71171,
              -0.89174
            ],
            [
              -78.72092,
              -0.89225
            ],
            [
              -78.72752,
              -0.89455
            ],
            [
              -78.72859,
              -0.89664
            ],
            [
              -78.73715,
              -0.89882
            ],
            [
              -78.73978,
              -0.90237
            ],
            [
              -78.74403,
              -0.90202
            ],
            [
              -78.7484,
              -0.90708
            ],
            [
              -78.7564,
              -0.90696
            ],
            [
              -78.75783,
              -0.90599
            ],
            [
              -78.78062,
              -0.91877
            ],
            [
              -78.80076,
              -0.92334
            ],
            [
              -78.80093,
              -0.92281
            ],
            [
              -78.79048,
              -0.91837
            ],
            [
              -78.78863,
              -0.90703
            ],
            [
              -78.78895,
              -0.90028
            ],
            [
              -78.78463,
              -0.89474
            ],
            [
              -78.78219,
              -0.88793
            ],
            [
              -78.77979,
              -0.88378
            ],
            [
              -78.77947,
              -0.88173
            ],
            [
              -78.78006,
              -0.87874
            ],
            [
              -78.77938,
              -0.87625
            ],
            [
              -78.77564,
              -0.87174
            ],
            [
              -78.76753,
              -0.8711
            ],
            [
              -78.76046,
              -0.874
            ],
            [
              -78.75351,
              -0.88338
            ],
            [
              -78.74814,
              -0.88105
            ],
            [
              -78.74629,
              -0.87843
            ],
            [
              -78.74277,
              -0.87896
            ],
            [
              -78.74018,
              -0.87851
            ],
            [
              -78.74038,
              -0.87453
            ],
            [
              -78.73676,
              -0.8724
            ],
            [
              -78.73523,
              -0.86596
            ],
            [
              -78.72796,
              -0.8616
            ],
            [
              -78.72337,
              -0.85688
            ],
            [
              -78.71531,
              -0.85631
            ],
            [
              -78.7109,
              -0.86035
            ],
            [
              -78.70438,
              -0.86289
            ],
            [
              -78.69815,
              -0.85769
            ],
            [
              -78.69435,
              -0.85878
            ],
            [
              -78.68827,
              -0.85386
            ],
            [
              -78.68121,
              -0.85031
            ],
            [
              -78.66901,
              -0.85064
            ],
            [
              -78.66092,
              -0.85419
            ],
            [
              -78.65792,
              -0.85775
            ],
            [
              -78.65187,
              -0.85443
            ]
          ]
        ]
      }
    },
    {
      "type": "Feature",
      "properties": {
        "code": 3530,
        "name": "San Juan de Pastocalle",
        "urbana": false,
        "lx": -78.64641,
        "ly": -0.67585
      },
      "geometry": {
        "type": "Polygon",
        "coordinates": [
          [
            [
              -78.60094,
              -0.60088
            ],
            [
              -78.59997,
              -0.607
            ],
            [
              -78.59532,
              -0.61493
            ],
            [
              -78.59589,
              -0.62842
            ],
            [
              -78.59284,
              -0.64623
            ],
            [
              -78.58955,
              -0.65777
            ],
            [
              -78.58444,
              -0.66256
            ],
            [
              -78.58687,
              -0.6664
            ],
            [
              -78.58692,
              -0.6685
            ],
            [
              -78.58209,
              -0.67227
            ],
            [
              -78.58454,
              -0.68001
            ],
            [
              -78.58482,
              -0.68989
            ],
            [
              -78.58321,
              -0.70207
            ],
            [
              -78.58643,
              -0.70532
            ],
            [
              -78.59293,
              -0.71002
            ],
            [
              -78.59371,
              -0.71376
            ],
            [
              -78.5962,
              -0.7162
            ],
            [
              -78.59874,
              -0.72148
            ],
            [
              -78.59958,
              -0.72401
            ],
            [
              -78.59988,
              -0.72832
            ],
            [
              -78.61238,
              -0.73148
            ],
            [
              -78.61946,
              -0.73638
            ],
            [
              -78.62941,
              -0.7468
            ],
            [
              -78.63548,
              -0.7545
            ],
            [
              -78.63806,
              -0.75662
            ],
            [
              -78.64132,
              -0.75708
            ],
            [
              -78.6415,
              -0.75498
            ],
            [
              -78.64395,
              -0.75071
            ],
            [
              -78.64766,
              -0.74774
            ],
            [
              -78.65244,
              -0.74254
            ],
            [
              -78.65553,
              -0.73568
            ],
            [
              -78.65742,
              -0.73305
            ],
            [
              -78.66419,
              -0.72611
            ],
            [
              -78.66932,
              -0.7233
            ],
            [
              -78.67384,
              -0.71855
            ],
            [
              -78.67893,
              -0.70798
            ],
            [
              -78.6857,
              -0.69877
            ],
            [
              -78.68816,
              -0.69659
            ],
            [
              -78.6897,
              -0.69389
            ],
            [
              -78.69195,
              -0.69131
            ],
            [
              -78.70032,
              -0.68633
            ],
            [
              -78.7026,
              -0.68317
            ],
            [
              -78.70523,
              -0.68223
            ],
            [
              -78.70728,
              -0.67953
            ],
            [
              -78.71286,
              -0.67092
            ],
            [
              -78.7134,
              -0.66523
            ],
            [
              -78.71589,
              -0.65713
            ],
            [
              -78.70271,
              -0.65286
            ],
            [
              -78.68489,
              -0.65399
            ],
            [
              -78.67879,
              -0.65129
            ],
            [
              -78.66911,
              -0.64872
            ],
            [
              -78.66313,
              -0.64392
            ],
            [
              -78.65808,
              -0.63529
            ],
            [
              -78.65362,
              -0.63286
            ],
            [
              -78.64662,
              -0.63191
            ],
            [
              -78.64335,
              -0.62933
            ],
            [
              -78.64313,
              -0.62468
            ],
            [
              -78.64502,
              -0.62022
            ],
            [
              -78.64283,
              -0.6152
            ],
            [
              -78.61965,
              -0.59979
            ],
            [
              -78.61558,
              -0.5926
            ],
            [
              -78.611,
              -0.5936
            ],
            [
              -78.60094,
              -0.60088
            ]
          ]
        ]
      }
    },
    {
      "type": "Feature",
      "properties": {
        "code": 3965,
        "name": "Tanicuchí",
        "urbana": false,
        "lx": -78.65903,
        "ly": -0.75056
      },
      "geometry": {
        "type": "Polygon",
        "coordinates": [
          [
            [
              -78.59985,
              -0.72766
            ],
            [
              -78.60069,
              -0.73225
            ],
            [
              -78.60489,
              -0.73691
            ],
            [
              -78.60731,
              -0.73809
            ],
            [
              -78.60904,
              -0.74127
            ],
            [
              -78.60716,
              -0.74485
            ],
            [
              -78.6057,
              -0.74562
            ],
            [
              -78.60564,
              -0.74752
            ],
            [
              -78.6094,
              -0.75116
            ],
            [
              -78.60754,
              -0.75422
            ],
            [
              -78.60806,
              -0.75944
            ],
            [
              -78.60754,
              -0.76341
            ],
            [
              -78.60821,
              -0.76437
            ],
            [
              -78.60874,
              -0.77064
            ],
            [
              -78.61096,
              -0.77897
            ],
            [
              -78.61079,
              -0.78128
            ],
            [
              -78.61345,
              -0.78749
            ],
            [
              -78.62189,
              -0.80268
            ],
            [
              -78.62388,
              -0.80911
            ],
            [
              -78.62319,
              -0.81215
            ],
            [
              -78.62785,
              -0.81141
            ],
            [
              -78.63152,
              -0.8128
            ],
            [
              -78.63178,
              -0.80743
            ],
            [
              -78.63044,
              -0.80192
            ],
            [
              -78.63162,
              -0.80063
            ],
            [
              -78.63445,
              -0.80031
            ],
            [
              -78.64319,
              -0.80149
            ],
            [
              -78.64726,
              -0.79922
            ],
            [
              -78.65021,
              -0.79839
            ],
            [
              -78.65166,
              -0.79606
            ],
            [
              -78.65699,
              -0.8064
            ],
            [
              -78.65994,
              -0.80527
            ],
            [
              -78.66302,
              -0.80091
            ],
            [
              -78.66503,
              -0.79626
            ],
            [
              -78.66875,
              -0.79134
            ],
            [
              -78.67188,
              -0.78494
            ],
            [
              -78.67241,
              -0.78249
            ],
            [
              -78.67272,
              -0.76633
            ],
            [
              -78.67469,
              -0.7554
            ],
            [
              -78.67632,
              -0.75112
            ],
            [
              -78.67436,
              -0.74956
            ],
            [
              -78.67226,
              -0.74936
            ],
            [
              -78.67225,
              -0.74866
            ],
            [
              -78.67411,
              -0.74313
            ],
            [
              -78.67692,
              -0.74107
            ],
            [
              -78.68381,
              -0.73113
            ],
            [
              -78.68903,
              -0.72051
            ],
            [
              -78.69209,
              -0.71769
            ],
            [
              -78.69658,
              -0.7031
            ],
            [
              -78.69694,
              -0.69427
            ],
            [
              -78.69569,
              -0.6886
            ],
            [
              -78.69236,
              -0.68939
            ],
            [
              -78.68391,
              -0.69942
            ],
            [
              -78.67734,
              -0.70881
            ],
            [
              -78.67418,
              -0.71679
            ],
            [
              -78.66968,
              -0.72137
            ],
            [
              -78.66464,
              -0.72428
            ],
            [
              -78.65558,
              -0.73373
            ],
            [
              -78.65385,
              -0.73649
            ],
            [
              -78.65238,
              -0.74072
            ],
            [
              -78.65056,
              -0.74333
            ],
            [
              -78.64821,
              -0.74597
            ],
            [
              -78.64183,
              -0.75105
            ],
            [
              -78.6406,
              -0.75554
            ],
            [
              -78.63954,
              -0.75588
            ],
            [
              -78.63719,
              -0.75479
            ],
            [
              -78.63259,
              -0.7485
            ],
            [
              -78.62119,
              -0.7367
            ],
            [
              -78.61321,
              -0.7309
            ],
            [
              -78.59985,
              -0.72766
            ]
          ]
        ]
      }
    },
    {
      "type": "Feature",
      "properties": {
        "code": 4035,
        "name": "Toacaso",
        "urbana": false,
        "lx": -78.76441,
        "ly": -0.71003
      },
      "geometry": {
        "type": "Polygon",
        "coordinates": [
          [
            [
              -78.7212,
              -0.64643
            ],
            [
              -78.7176,
              -0.65752
            ],
            [
              -78.71233,
              -0.6654
            ],
            [
              -78.71183,
              -0.67082
            ],
            [
              -78.70424,
              -0.68167
            ],
            [
              -78.70193,
              -0.68252
            ],
            [
              -78.69571,
              -0.68806
            ],
            [
              -78.69558,
              -0.70293
            ],
            [
              -78.69121,
              -0.71713
            ],
            [
              -78.68821,
              -0.71991
            ],
            [
              -78.68295,
              -0.73063
            ],
            [
              -78.6762,
              -0.74037
            ],
            [
              -78.67325,
              -0.74252
            ],
            [
              -78.67112,
              -0.75025
            ],
            [
              -78.67396,
              -0.75052
            ],
            [
              -78.67512,
              -0.75144
            ],
            [
              -78.67373,
              -0.75513
            ],
            [
              -78.67209,
              -0.76353
            ],
            [
              -78.67141,
              -0.78235
            ],
            [
              -78.66992,
              -0.78736
            ],
            [
              -78.68345,
              -0.78742
            ],
            [
              -78.68695,
              -0.78417
            ],
            [
              -78.68823,
              -0.77954
            ],
            [
              -78.69162,
              -0.77455
            ],
            [
              -78.69247,
              -0.77483
            ],
            [
              -78.69358,
              -0.77329
            ],
            [
              -78.69376,
              -0.76846
            ],
            [
              -78.69245,
              -0.76685
            ],
            [
              -78.69234,
              -0.76601
            ],
            [
              -78.69407,
              -0.76352
            ],
            [
              -78.69401,
              -0.76206
            ],
            [
              -78.69737,
              -0.75553
            ],
            [
              -78.70309,
              -0.74948
            ],
            [
              -78.70646,
              -0.7472
            ],
            [
              -78.71352,
              -0.7444
            ],
            [
              -78.71641,
              -0.7449
            ],
            [
              -78.72325,
              -0.74451
            ],
            [
              -78.72402,
              -0.74606
            ],
            [
              -78.72819,
              -0.74874
            ],
            [
              -78.73099,
              -0.74842
            ],
            [
              -78.7487,
              -0.74966
            ],
            [
              -78.77195,
              -0.75217
            ],
            [
              -78.77579,
              -0.75806
            ],
            [
              -78.7781,
              -0.77406
            ],
            [
              -78.7854,
              -0.77422
            ],
            [
              -78.79378,
              -0.7689
            ],
            [
              -78.79407,
              -0.77176
            ],
            [
              -78.79949,
              -0.77799
            ],
            [
              -78.7996,
              -0.77345
            ],
            [
              -78.80266,
              -0.77394
            ],
            [
              -78.80843,
              -0.77333
            ],
            [
              -78.81461,
              -0.77418
            ],
            [
              -78.81727,
              -0.77269
            ],
            [
              -78.82101,
              -0.77207
            ],
            [
              -78.82291,
              -0.76837
            ],
            [
              -78.82676,
              -0.76646
            ],
            [
              -78.83683,
              -0.75475
            ],
            [
              -78.83361,
              -0.74192
            ],
            [
              -78.84003,
              -0.73249
            ],
            [
              -78.83508,
              -0.71814
            ],
            [
              -78.83417,
              -0.71182
            ],
            [
              -78.83669,
              -0.70846
            ],
            [
              -78.83472,
              -0.70155
            ],
            [
              -78.83211,
              -0.69702
            ],
            [
              -78.82567,
              -0.69732
            ],
            [
              -78.82411,
              -0.69033
            ],
            [
              -78.82539,
              -0.68286
            ],
            [
              -78.82018,
              -0.67244
            ],
            [
              -78.81699,
              -0.67458
            ],
            [
              -78.80976,
              -0.67248
            ],
            [
              -78.80796,
              -0.67092
            ],
            [
              -78.80572,
              -0.6702
            ],
            [
              -78.80389,
              -0.66804
            ],
            [
              -78.79738,
              -0.66562
            ],
            [
              -78.79367,
              -0.66244
            ],
            [
              -78.79145,
              -0.6626
            ],
            [
              -78.78835,
              -0.65751
            ],
            [
              -78.78757,
              -0.65359
            ],
            [
              -78.78334,
              -0.64991
            ],
            [
              -78.78031,
              -0.64548
            ],
            [
              -78.77833,
              -0.6416
            ],
            [
              -78.7771,
              -0.636
            ],
            [
              -78.7708,
              -0.62968
            ],
            [
              -78.75945,
              -0.63349
            ],
            [
              -78.75018,
              -0.63806
            ],
            [
              -78.73834,
              -0.63702
            ],
            [
              -78.7212,
              -0.64643
            ]
          ]
        ]
      }
    }
  ]
}
